[{"OBJECT_NAME":"STARLINK-31452","OBJECT_ID":"2024-073S","EPOCH":"2026-03-08T17:13:05.514816","MEAN_MOTION":15.27575157,"ECCENTRICITY":7.728e-5,"INCLINATION":43.0013,"RA_OF_ASC_NODE":323.7939,"ARG_OF_PERICENTER":273.2657,"MEAN_ANOMALY":86.8106,"EPHEMERIS_TYPE":0,"CLASSIFICATION_TYPE":"U","NORAD_CAT_ID":59527,"ELEMENT_SET_NO":999,"REV_AT_EPOCH":10602,"BSTAR":-9.144056e-6,"MEAN_MOTION_DOT":-5.13e-6,"MEAN_MOTION_DDOT":0},{"OBJECT_NAME":"COSMOS 1174 DEB","OBJECT_ID":"1980-030Y","EPOCH":"2026-03-09T13:55:47.203680","MEAN_MOTION":14.93245018,"ECCENTRICITY":0.0309747,"INCLINATION":66.0991,"RA_OF_ASC_NODE":136.4359,"ARG_OF_PERICENTER":294.7315,"MEAN_ANOMALY":62.1863,"EPHEMERIS_TYPE":0,"CLASSIFICATION_TYPE":"U","NORAD_CAT_ID":12354,"ELEMENT_SET_NO":999,"REV_AT_EPOCH":38214,"BSTAR":0.00037697,"MEAN_MOTION_DOT":0.00010173,"MEAN_MOTION_DDOT":0}]
